IRIDIUM 155             
1 43573U 18061E   24131.72715757  .00000433  00000+0  14768-3 0  9998
2 43573  86.4006  17.4146 0002120  80.4943 279.6492 14.34220104303358
IRIDIUM 154             
1 43574U 18061F   24132.40581006  .00001858  00000+0  65606-3 0  9992
2 43574  86.4009  17.2269 0002437  85.2463 274.9011 14.34226019303500
IRIDIUM 163             
1 43575U 18061G   24132.38678407  .00003109  00000+0  11022-2 0  9995
2 43575  86.4005  17.1743 0002223  82.1775 277.9673 14.34232533303479
IRIDIUM 156             
1 43576U 18061H   24132.43118072  .00001961  00000+0  69302-3 0  9998
2 43576  86.4003  17.1622 0002075  86.5457 273.5977 14.34227083303466
IRIDIUM 164             
1 43577U 18061J   24131.78424102  .00000626  00000+0  21647-3 0  9997
2 43577  86.4009  17.4606 0002207  93.3906 266.7542 14.34222871303428
IRIDIUM 159             
1 43578U 18061K   24131.68276058 -.00000031  00000+0 -18084-4 0  9996
2 43578  86.4002  17.4557 0002252  89.5923 270.5531 14.34217277303372
IRIDIUM 180             
1 43922U 19002A   24131.89156908  .00000208  00000+0  67223-4 0  9992
2 43922  86.3934 314.2656 0002207  89.4078 270.7371 14.34219231279015
IRIDIUM 176             
1 43923U 19002B   24132.55132838  .00001347  00000+0  20978-3 0  9993
2 43923  86.6063 314.0142 0002523  92.7502 267.4004 14.72251852286459
IRIDIUM 168             
1 43924U 19002C   24131.88521956  .00000234  00000+0  76403-4 0  9991
2 43924  86.3936 314.3240 0002152  92.7490 267.3952 14.34217759278999
IRIDIUM 173             
1 43925U 19002D   24131.94230059  .00000235  00000+0  76679-4 0  9996
2 43925  86.3933 314.2204 0002219  90.4351 269.7099 14.34218339278983
IRIDIUM 169             
1 43926U 19002E   24132.12163978  .00003925  00000+0  12755-2 0  9995
2 43926  86.4233 345.7643 0003110  40.8285 319.3146 14.38630164279940
IRIDIUM 172             
1 43927U 19002F   24131.93595639  .00000236  00000+0  77382-4 0  9998
2 43927  86.3933 314.2286 0002180  92.6947 267.4499 14.34218787278994
IRIDIUM 175             
1 43928U 19002G   24132.47749470  .00010331  00000+0  16316-2 0  9998
2 43928  86.1475 289.2494 0002268  83.8124 276.3351 14.72271729286433
IRIDIUM 171             
1 43929U 19002H   24131.91693564  .00000268  00000+0  88502-4 0  9995
2 43929  86.3945 314.4582 0001981  95.2287 264.9135 14.34219606278983
IRIDIUM 170             
1 43930U 19002J   24131.94579706  .00000937  00000+0  14476-3 0  9992
2 43930  86.6063 314.2723 0002271  88.5265 271.6212 14.72248332286371
IRIDIUM 167             
1 43931U 19002K   24131.91058705  .00000239  00000+0  78150-4 0  9996
2 43931  86.3934 314.2550 0002117  90.9338 269.2100 14.34218061278982
IRIDIUM 181             
1 56726U 23068S   24131.67615925  .00000547  00000+0  15581-3 0  9995
2 56726  86.8666   6.2520 0002051  89.9163 270.2274 14.43590946 51721
IRIDIUM 177             
1 56727U 23068T   24131.84151200  .00003885  00000+0  50734-3 0  9993
2 56727  86.1962 333.1023 0002195 101.9677 258.1790 14.80263712 52850
IRIDIUM 174             
1 56728U 23068U   24132.51206867  .00006004  00000+0  78556-3 0  9997
2 56728  86.1969 332.8845 0002340  83.3686 276.7801 14.80270581 52953
IRIDIUM 178             
1 56729U 23068V   24132.10111532  .00008187  00000+0  10720-2 0  9999
2 56729  86.5790 348.7834 0002872  77.0493 283.1050 14.80275334 52892
IRIDIUM 179             
1 56730U 23068W   24132.09564028  .00005723  00000+0  74910-3 0  9996
2 56730  86.6808 352.4514 0002753  84.5239 275.6297 14.80248796 52892
